H-2A R/B                
1 28932U 06002B   26088.13840885  .00015197  00000+0  74856-3 0  9998
2 28932  98.2445 236.8455 0052422 174.4683 185.7138 15.16850001 97386
RESURS-DK 1             
1 29228U 06021A   26087.97507506  .00002612  00000+0  15424-3 0  9993
2 29228  69.9338 187.1360 0001231  52.5340 307.5938 15.12864225 90443
CZ-4B R/B               
1 29507U 06046C   26088.13383830  .00005792  00000+0  29185-3 0  9992
2 29507  97.5560 132.9891 0032763 197.5218 162.4888 15.17096769 62998
CZ-2C R/B               
1 31114U 07010B   26088.17016056  .00000168  00000+0  96312-4 0  9997
2 31114  98.3998 200.4745 0058103 236.9018 122.6573 14.20253309982482
COSMO-SKYMED 1          
1 31598U 07023A   26088.18731260  .00004500  00000+0  39949-3 0  9995
2 31598  97.8874 279.3786 0000990 100.6810 259.4522 14.96674645 17826
COSMOS 2428             
1 31792U 07029A   26088.21572527 -.00000025  00000+0  12148-4 0  9992
2 31792  70.9433 162.3626 0009700 256.9361 103.0677 14.12948452966852
SL-16 R/B               
1 31793U 07029B   26088.21880495  .00000021  00000+0  35730-4 0  9996
2 31793  70.9747 131.3347 0002734 277.8941 145.2253 14.14843564968134
KORONAS-FOTON           
1 33504U 09003A   26088.21245497  .00019600  00000+0  43009-3 0  9999
2 33504  82.4275 255.5703 0011767  86.4859 273.7734 15.43844729948757
CZ-2C R/B               
1 37731U 11030B   26087.86265691  .00001602  00000+0  20784-3 0  9994
2 37731  97.8576  44.7469 0051114 288.6356 124.8699 14.81288346792933
H-2A R/B                
1 38341U 12025E   26087.86762268  .00003767  00000+0  34201-3 0  9992
2 38341  98.4762  56.4548 0042748 249.4379 110.2251 14.95301389751088
SHIJIAN-16 (SJ-16)      
1 39358U 13057A   26088.20385484  .00002257  00000+0  22258-3 0  9999
2 39358  74.9724 148.1476 0015254  61.7079 298.5647 14.92424360674419
SL-4 R/B                
1 39679U 14021B   26087.77830194  .00022219  00000+0  47701-3 0  9991
2 39679  51.6044 244.1089 0095567 172.5582 187.6847 15.39833982659211
